CALSPHERE 1             
1 00900U 64063C   08167.53961693  .00000240  00000-0  26058-3 0  5156
2 00900  90.1727 320.6266 0025131 247.2152 112.6404 13.70331931169259
CALSPHERE 2             
1 00902U 64063E   08167.49715083  .00000075  00000-0  10000-3 0  7836
2 00902  90.1735 323.8115 0015943 230.4049 129.5697 13.52454244967808
LCS 1                   
1 01361U 65034C   08166.87204651  .00000009  00000-0  10000-3 0   324
2 01361  32.1458 311.1106 0007887  42.2968 317.8136  9.89274283558986
TEMPSAT 1               
1 01512U 65065E   08167.77190070  .00000059  00000-0  10000-3 0  8722
2 01512  89.8248 306.9291 0070070 350.5702   9.4119 13.33250453 83808
CALSPHERE 4(A)          
1 01520U 65065H   08167.79172741  .00000059  00000-0  10000-3 0    23
2 01520  90.1913  76.4714 0068224 280.7677  78.5787 13.35290256 85350
OPS 5712 (P/L 160)      
1 02826U 67053A   08167.49916102  .00000191  00000-0  82910-4 0  4566
2 02826  69.9335 290.9832 0007720 295.2545  64.7780 14.37960878114579
OPS 5712 (P/L 153)      
1 02874U 67053H   08167.47668743 -.00000036  00000-0  12630-4 0  8286
2 02874  69.9710 156.7806 0005246  92.7827 267.3881 13.95905934 89369
SURCAL 150B             
1 02909U 67053J   08167.38029149  .00000442  00000-0  14058-3 0  6212
2 02909  69.9539 116.2951 0003045 146.4999 213.6334 14.46122736119933
RIGIDSPHERE 2 (LCS 4)   
1 05398U 71067E   08167.11191729  .00000123  00000-0  39234-4 0  2870
2 05398  87.6244 350.2204 0063719 301.3185  58.1774 14.31067707932069
RADCAT                  
1 06212U 72076A   08167.80162334  .00001017  00000-0  41347-4 0  4887
2 06212  98.5602 114.6750 0003597 153.7323 206.4104 15.27463417 66925
